License Number,Name of Licensee,Alternative Name of Licensee,Street_Address,Zip_Code,Telephone,License Type,Location 1
License Number,Name of Licensee,Alternative Name of Licensee,Street_Address,Zip_Code,Telephone,License Type,
B00008 ,T-D MAINTENANCE CORP                                        ,FOUR ONES CAR SERVICE                                       ,69-90 73 PLACE,11379,718-456-1111,"TLC-licensed base (FHV, Commuter Van, or Para)",
B00009 ,T-D MAINTENANCE                                             ,FOUR ONES CAR SERVICE                                       ,69-90 73 PLACE,11379,718-456-1111,"TLC-licensed base (FHV, Commuter Van, or Para)",
B00021 ,MEXICANA HIGH CLASS INC.                                    ,CAPITAL CAR SERVICE                                         ,52-02 103 STREET,11368,718-592-1200,"TLC-licensed base (FHV, Commuter Van, or Para)",
B00023 ,F.J.A. LIVERY CORP                                          ,VILLAGE CAR SERVICE                                         ,3747A VICTORY BOULEVARD,10314,718-698-4493,"TLC-licensed base (FHV, Commuter Van, or Para)",
B00029 ,COMMUNITY CAR SVC CORP                                      ,                                                            ,1322 EAST GUN HILL ROAD,10469,718-881-0708,"TLC-licensed base (FHV, Commuter Van, or Para)",
B00030 ,TREMONT DISPATCHING CORP                                    ,                                                            ,3552 EAST TREMONT AVENUE,10465,718-822-7777,"TLC-licensed base (FHV, Commuter Van, or Para)",
B00031 ,QUEENS VILLAGE INC.                                         ,                                                            ,96-23 SPRINGFIELD BOULEVARD,11429,718-776-8787,"TLC-licensed base (FHV, Commuter Van, or Para)",
B00037 ,TRANSP UNLIMITED C/S                                        ,                                                            ,1226 NOSTRAND AVENUE,11225,718-363-1000,"TLC-licensed base (FHV, Commuter Van, or Para)",
B00041 ,COMMUNITY CAR SERVICE PRISCILLA CORP.                       ,                                                            ,9-17 WYCKOFF AVENUE,11385,718-366-8800,"TLC-licensed base (FHV, Commuter Van, or Para)",
B00054 ,128 BLUE BIRD TRANSPORT INC.                                ,LATCH CAR SERVICE                                           ,111-05 128 STREET,11420,718-529-7748,"TLC-licensed base (FHV, Commuter Van, or Para)",
B00055 ,TRY MANAGEMENT CO. INC.                                     ,APPLE CAR SERVICE                                           ,3-01 27 AVENUE,11102,718-267-7200,"TLC-licensed base (FHV, Commuter Van, or Para)",
B00056 ,TRANSIT PVT C/S INC.                                        ,                                                            ,1417 ROCKAWAY PARKWAY,11236,718-649-4100,"TLC-licensed base (FHV, Commuter Van, or Para)",
B00058 ,NEW COLLEGE CAR SVCE INC                                    ,                                                            ,1588 DR M L KING JR BOULEVARD,10453,718-731-3333,"TLC-licensed base (FHV, Commuter Van, or Para)",
B00095 ,LIBERTY CAR SERVICE INC.                                    ,                                                            ,689 SENECA AVENUE,11385,718-366-6666,"TLC-licensed base (FHV, Commuter Van, or Para)",
B00106 ,HUMMINGBIRD CAR SVC                                         ,                                                            ,2616 CLARENDON ROAD,11226,718-856-6155,"TLC-licensed base (FHV, Commuter Van, or Para)",
B00112 ,HARBOR VIEW TRANS OF S I                                    ,                                                            ,9419 5 AVENUE,11209,718-680-2500,"TLC-licensed base (FHV, Commuter Van, or Para)",
B00131 ,NEW MEXICANA CAR SERVICE II INC.                            ,AZTECA EXPRESS                                              ,4906 7 AVENUE,11220,718-853-2929,"TLC-licensed base (FHV, Commuter Van, or Para)",
B00136 ,BIG D ROYAL CAR SVCE                                        ,                                                            ,117-02 MERRICK BOULEVARD,11434,718-481-8901,"TLC-licensed base (FHV, Commuter Van, or Para)",
B00149 ,RAINBOW RAD DISP INC                                        ,                                                            ,389 TROY AVENUE,11213,718-498-9291,"TLC-licensed base (FHV, Commuter Van, or Para)",
B00151 ,KINGSBAY CAR SERVICE INC                                    ,                                                            ,2111 AVENUE Z,11235,718-648-2800,"TLC-licensed base (FHV, Commuter Van, or Para)",
B00160 ,JAFFA CAR & LIMO SVC INC                                    ,                                                            ,1708 EAST   16 STREET,11229,718-376-6400,"TLC-licensed base (FHV, Commuter Van, or Para)",
B00170 ,EMUNAH CAR SERVICE INC                                      ,                                                            ,1311 51 STREET,11219,718-853-4422,"TLC-licensed base (FHV, Commuter Van, or Para)",
B00171 ,SHAMROCK DISPATCH INC                                       ,KELLY'S PRIVATE CAR SERVICE                                 ,212-35 42 AVENUE,11361,718-229-4189,"TLC-licensed base (FHV, Commuter Van, or Para)",
B00183 ,KEW GARDEN OPERATING CORP                                   ,                                                            ,122-11 HILLSIDE AVENUE,11418,718-846-6666,"TLC-licensed base (FHV, Commuter Van, or Para)",
B00196 ,NEW EASY WAY RADIO DISP INC                                 ,                                                            ,153 EAST  106 STREET,10029,212-360-6241,"TLC-licensed base (FHV, Commuter Van, or Para)",
B00210 ,QUEENS DISPATCH SVC INC.                                    ,HOWARD                                                      ,6 COLEMAN SQUARE,11414,718-835-3500,"TLC-licensed base (FHV, Commuter Van, or Para)",
B00220 ,BIG EAST MULTI GROUP CORP.                                  ,PREMIER CAR SERVICE                                         ,4916 FOSTER AVENUE,11203,718-629-1038,"TLC-licensed base (FHV, Commuter Van, or Para)",
B00221 ,PROFESSIONAL CAR SERVICE INC                                ,                                                            ,376 AUDUBON AVENUE,10033,212-923-6565,"TLC-licensed base (FHV, Commuter Van, or Para)",
B00222 ,"REYNO CAR SVC, INC.                                         ",                                                            ,615 WEST 173RD STREET 1B,10032,212-923-6800,"TLC-licensed base (FHV, Commuter Van, or Para)",
B00225 ,DELANCEY CAR SERVICE INC.                                   ,DELANCEY CAR SERVICE                                        ,29 ESSEX STREET NORTH STORE,10002,212-228-3301,"TLC-licensed base (FHV, Commuter Van, or Para)",
B00229 ,CLIFTON CAR SERVICE INC.                                    ,                                                            ,514 TARGEE STREET,10304,718-442-6464,"TLC-licensed base (FHV, Commuter Van, or Para)",
B00233 ,COBBLEHILL CAR SERVICE INC.                                 ,                                                            ,269 COURT STREET,11231,718-643-1113,"TLC-licensed base (FHV, Commuter Van, or Para)",
B00248 ,SUNLINE TRANSPORTATION INC.                                 ,YES CAR SERVICE                                             ,133-56 41 AVENUE,11355,718-492-9300,"TLC-licensed base (FHV, Commuter Van, or Para)",
B00255 ,JSE MANAGEMENT CORP.                                        ,DIAL A RIDE                                                 ,76-19 ROCKAWAY BOULEVARD,11421,718-296-2424,"TLC-licensed base (FHV, Commuter Van, or Para)",
B00256 ,FAST OPERATING CORP                                         ,CARMEL C/L SVCE                                             ,2642 BROADWAY,10025,212-666-6666,"TLC-licensed base (FHV, Commuter Van, or Para)",
B00278 ,FAMILY CAR SERVICE                                          ,                                                            ,533 CARROLL STREET,11215,718-596-0677,"TLC-licensed base (FHV, Commuter Van, or Para)",
B00281 ,"VEE CEE LIMOUSINE SERVICE, INC                              ",NOSTRAND CAR SVCE                                           ,2946 AVENUE S,11229,718-339-5400,"TLC-licensed base (FHV, Commuter Van, or Para)",
B00290 ,ZPI CORPORATION                                             ,NATIONAL HIGH CLASS                                         ,112-47 ROOSEVELT AVENUE,11368,718-424-9494,"TLC-licensed base (FHV, Commuter Van, or Para)",
B00302 ,DOMINICAN CAR SVC INC                                       ,                                                            ,4405 5 AVENUE,11220,718-438-6262,"TLC-licensed base (FHV, Commuter Van, or Para)",
B00305 ,RITE WAY PVT CAR SVCE                                       ,                                                            ,1598 BRONXDALE AVENUE,10462,718-882-2222,"TLC-licensed base (FHV, Commuter Van, or Para)",
B00310 ,WATSON CAR SERVICE INC.                                     ,                                                            ,1681 BRUCKNER BOULEVARD,10472,718-991-8484,"TLC-licensed base (FHV, Commuter Van, or Para)",
B00314 ,60TH STREET CAR SERVICE INC.                                ,JAY'S CAR SVCE                                              ,5909 18 AVENUE,11204,718-236-5900,"TLC-licensed base (FHV, Commuter Van, or Para)",
B00318 ,APPLE RADIO CARS INC                                        ,                                                            ,41 BROOKLYN AVENUE,11216,718-363-9000,"TLC-licensed base (FHV, Commuter Van, or Para)",
B00319 ,AVENTINE AUTO RENTAL INC                                    ,SAFEWAY CAR SVCE                                            ,2079 EAST   16 STREET,11229,718-336-1010,"TLC-licensed base (FHV, Commuter Van, or Para)",
B00325 ,CONTINENTAL RADIO DISPATCH CORP.                            ,                                                            ,98-02 ASTORIA BOULEVARD,11369,718-507-8006,"TLC-licensed base (FHV, Commuter Van, or Para)",
B00334 ,DO MAX CORP.                                                ,HIGH BRIDGE C/S                                             ,2402 AMSTERDAM AVENUE,10033,212-927-4600,"TLC-licensed base (FHV, Commuter Van, or Para)",
B00337 ,KEW GARDENS ENTP INC                                        ,                                                            ,122-11 HILLSIDE AVENUE,11418,718-846-5800,"TLC-licensed base (FHV, Commuter Van, or Para)",
B00345 ,MARTINS BELLE HARBOUR C/S                                   ,                                                            ,173 BEACH  116 STREET,11694,718-634-1200,"TLC-licensed base (FHV, Commuter Van, or Para)",
B00346 ,MERRICK C/S INC                                             ,                                                            ,127-05 MERRICK BOULEVARD,11434,718-528-8400,"TLC-licensed base (FHV, Commuter Van, or Para)",
B00350 ,CHAMPION CAR & LIMO SVC. INC.                               ,                                                            ,40-33 JUCTION BLVD.,11368,718-779-8080,"TLC-licensed base (FHV, Commuter Van, or Para)",
B00369 ,BOULEVARD OPERATING INC.                                    ,                                                            ,122-11 HILLSIDE AVENUE,11418,718-591-1111,"TLC-licensed base (FHV, Commuter Van, or Para)",
B00373 ,MOISHA EXPRESS INC.                                         ,                                                            ,1312 44 STREET,11219,718-871-5555,"TLC-licensed base (FHV, Commuter Van, or Para)",
B00375 ,THE EXCELLENT C/S INC                                       ,                                                            ,144 EAST  174 STREET,10457,718-731-9110,"TLC-licensed base (FHV, Commuter Van, or Para)",
B00378 ,HABIRAH INC.                                                ,ELAT CAR & LIMOUSINE                                        ,1602 MCDONALD AVENUE,11230,718-339-5111,"TLC-licensed base (FHV, Commuter Van, or Para)",
B00385 ,DELINCE CAR LIVERY SERVICE CORP.                            ,WHITE TOP CAR SERVICE                                       ,1116 ST JOHNS PLACE,11213,718-774-3959,"TLC-licensed base (FHV, Commuter Van, or Para)",
B00401 ,TREMONT DISPATCHING CORP                                    ,                                                            ,1733 EDISON AVENUE,10461,718-822-7777,"TLC-licensed base (FHV, Commuter Van, or Para)",
B00415 ,BROWN & BROWN CORPORATION                                   ,                                                            ,540 HALSEY STREET,11233,718-574-4900,"TLC-licensed base (FHV, Commuter Van, or Para)",
B00419 ,KOOP DISPATCHERS INC                                        ,                                                            ,3287 WESTCHESTER AVENUE,10461,718-792-2222,"TLC-licensed base (FHV, Commuter Van, or Para)",
B00420 ,ALLIED CENTRAL CAR SERVICE INC.                             ,BLACK PEARL CAR SERVICE                                     ,474 MARCUS GARVEY BOULEVARD,11216,718-773-0020,"TLC-licensed base (FHV, Commuter Van, or Para)",
B00429 ,SURF CAR SYSTEMS INC                                        ,                                                            ,21-18 MOTT AVENUE,11691,718-327-4444,"TLC-licensed base (FHV, Commuter Van, or Para)",
B00445 ,JOE M LEASING CORP                                          ,FOUR TWO'S PVT C/S                                          ,150-18 12 ROAD,11357,718-746-2222,"TLC-licensed base (FHV, Commuter Van, or Para)",
B00449 ,A KINGS HWY C/S INC.                                        ,                                                            ,1650 EAST   15 STREET,11229,718-627-4024,"TLC-licensed base (FHV, Commuter Van, or Para)",
B00457 ,PREMIUM BRONX CORP                                          ,                                                            ,900 EAST TREMONT AVENUE,10460,718-328-8080,"TLC-licensed base (FHV, Commuter Van, or Para)",
B00459 ,910 CAR SERVICE INC                                         ,                                                            ,117 JAMAICA AVENUE,11207,718-922-1500,"TLC-licensed base (FHV, Commuter Van, or Para)",
B00469 ,LET IT RIDE INC.                                            ,MY WAY                                                      ,8414 13 AVENUE,11228,718-745-0031,"TLC-licensed base (FHV, Commuter Van, or Para)",
B00475 ,RIDGE TRANSPORTATION CORP.                                  ,                                                            ,374 86 STREET,11209,718-748-4444,"TLC-licensed base (FHV, Commuter Van, or Para)",
B00481 ,18TH AVENUE PRIVATE CAR SERVICE INC                         ,                                                            ,8439 NEW UTRECHT AVENUE,11214,718-232-2223,"TLC-licensed base (FHV, Commuter Van, or Para)",
B00485 ,EARLY BIRD CAR SERVICE INC                                  ,                                                            ,126-06 111 AVENUE,11420,718-845-1545,"TLC-licensed base (FHV, Commuter Van, or Para)",
B00492 ,BLU WHITE ASSOC TRANS.SVC.INC.                              ,                                                            ,708 NEREID AVENUE,10466,718-324-2222,"TLC-licensed base (FHV, Commuter Van, or Para)",
B00501 ,TARGET TRANSP CORP                                          ,                                                            ,3719 FIELDSTON ROAD,10463,718-796-6900,"TLC-licensed base (FHV, Commuter Van, or Para)",
B00531 ,"FRIENDLY BEST-WAY TRANSPORTATION, INC.                      ",                                                            ,1448 CONEY ISLAND AVENUE,11230,718-252-6363,"TLC-licensed base (FHV, Commuter Van, or Para)",
B00536 ,"WINTHROP HOLDING OF NEW YORK, INC                           ",                                                            ,5924 GLENWOOD ROAD,11234,718-241-2846,"TLC-licensed base (FHV, Commuter Van, or Para)",
B00548 ,"LINDY CARS, INC.                                            ",                                                            ,62-16 METROPOLITAN AVENUE,11379,718-386-2222,"TLC-licensed base (FHV, Commuter Van, or Para)",
B00559 ,7 OCEAN EXPRESS INC.                                        ,                                                            ,272 BRIGHTON BEACH AVENUE,11235,718-266-3333,"TLC-licensed base (FHV, Commuter Van, or Para)",
B00570 ,ROUND TOWN PRIVATE CAR SERVICE INC.                         ,                                                            ,3455A BAYCHESTER AVENUE,10469,718-519-7777,"TLC-licensed base (FHV, Commuter Van, or Para)",
B00593 ,M A J MANAGEMENT INC.                                       ,CITY & RIDE CAR AND LIMO SVC                                ,6602 BAY PARKWAY,11204,718-633-0024,"TLC-licensed base (FHV, Commuter Van, or Para)",
B00597 ,WAKEFIELD LSG MAINT CORP                                    ,                                                            ,711 EAST  241 STREET,10470,718-325-8663,"TLC-licensed base (FHV, Commuter Van, or Para)",
B00619 ,LINCOLN LIMO SVCE INC                                       ,                                                            ,47 LUDLOW STREET,10002,212-571-5275,"TLC-licensed base (FHV, Commuter Van, or Para)",
B00625 ,"CENTRAL CAR SERVICES,INC.                                   ",                                                            ,94-12 ASTORIA BOULEVARD,11369,718-335-4141,"TLC-licensed base (FHV, Commuter Van, or Para)",
B00639 ,ROCAPULCO CAR SERVICE INC.                                  ,                                                            ,239 BEACH  116 STREET,11694,718-474-7100,"TLC-licensed base (FHV, Commuter Van, or Para)",
B00647 ,KISS CAR SERVICE INC                                        ,                                                            ,2774 WEBSTER AVENUE,10458,718-562-5800,"TLC-licensed base (FHV, Commuter Van, or Para)",
B00652 ,RESCUE C/S INC                                              ,                                                            ,264A TROY AVENUE 1FL,11213,718-363-0200,"TLC-licensed base (FHV, Commuter Van, or Para)",
B00653 ,ROYAL CAR AND LIMO SERVICE                                  ,                                                            ,104-09 109 STREET,11419,718-323-3333,"TLC-licensed base (FHV, Commuter Van, or Para)",
B00692 ,"CHEERS DISPATCH,INC.                                        ",SEVENTH AVE CAR SERVICE                                     ,307A 7 AVENUE,11215,718-965-1616,"TLC-licensed base (FHV, Commuter Van, or Para)",
B00693 ,BUSHWICK CAR SVCE INC                                       ,                                                            ,184 KNICKERBOCKER AVENUE,11237,718-386-5002,"TLC-licensed base (FHV, Commuter Van, or Para)",
B00706 ,"VIC & BAY CAR SERVICE, INC                                  ",DEJOY'S RED TOP                                             ,200 BAY STREET,10301,718-447-2500,"TLC-licensed base (FHV, Commuter Van, or Para)",
B00710 ,TS LIMO C LLC                                               ,CONTINENTAL PVT C/LSVCE                                     ,134 WEST 37 STREET 2ND FL.,10018,212-777-7725,"TLC-licensed base (FHV, Commuter Van, or Para)",
B00715 ,ERUSHALAIM CORP.                                            ,                                                            ,343 ROEBLING STREET,11211,718-387-4900,"TLC-licensed base (FHV, Commuter Van, or Para)",
B00718 ,C-ANNE CORP                                                 ,AAA APPLE C/S                                               ,2480 RICHMOND TERRACE,10303,718-727-9500,"TLC-licensed base (FHV, Commuter Van, or Para)",
B00727 ,RECHEV OF BROOKLYN INC                                      ,                                                            ,992 EAST   15 STREET,11230,718-338-2003,"TLC-licensed base (FHV, Commuter Van, or Para)",
B00728 ,GUNHILL CAR SERVICE                                         ,                                                            ,254 EAST GUNHILL ROAD,10467,718-515-2600,"TLC-licensed base (FHV, Commuter Van, or Para)",
B00743 ,SUPREME EDENWALD CAR SVCE INC                               ,                                                            ,690 EAST  233 STREET,10466,718-881-1200,"TLC-licensed base (FHV, Commuter Van, or Para)",
B00746 ,BAMADU CAR SVCE                                             ,                                                            ,117-34 SUTPHIN BOULEVARD,11434,718-723-2020,"TLC-licensed base (FHV, Commuter Van, or Para)",
B00751 ,KESHET CAR SERVICE_LTD                                      ,KESHET CAR SERVICE_LTD                                      ,4504 FORT HAMILTON PWKY,11219,718-854-8200,"TLC-licensed base (FHV, Commuter Van, or Para)",
B00756 ,T & S HILLSIDE INC.                                         ,RED CAP CAR SVCE                                            ,87-51 HOMELAWN STREET,11432,718-658-5252,"TLC-licensed base (FHV, Commuter Van, or Para)",
B00790 ,"SEGURA MOBILE SERVICE, INC.                                 ",ALLEN CAR LIMO SVCE                                         ,7 DELANCEY STREET,10002,212-982-2200,"TLC-licensed base (FHV, Commuter Van, or Para)",
B00802 ,BELL CAR SVC INC                                            ,                                                            ,405 51 STREET,11220,718-833-2929,"TLC-licensed base (FHV, Commuter Van, or Para)",
B00811 ,LLAMA LIMO C/S CORP                                         ,                                                            ,49 WEST  170 STREET,10452,718-538-6000,"TLC-licensed base (FHV, Commuter Van, or Para)",
B00821 ,ATLANTIC CAR SVCE                                           ,                                                            ,3207 FULTON STREET,11208,718-277-3353,"TLC-licensed base (FHV, Commuter Van, or Para)",
B00823 ,EASTERN L.P.B.INC.                                          ,EASTERN CAR SVCE                                            ,222 15 STREET,11215,718-499-6263,"TLC-licensed base (FHV, Commuter Van, or Para)",
B00827 ,"CASTLE CAR SERVICE, INC                                     ",                                                            ,559 4 AVENUE,11215,718-499-9333,"TLC-licensed base (FHV, Commuter Van, or Para)",
B00833 ,OMEGA CAR SERVICE INC.                                      ,                                                            ,134-08 232 STREET,11413,718-341-1777,"TLC-licensed base (FHV, Commuter Van, or Para)",
B00850 ,UPTOWN TRANSIT CORP                                         ,                                                            ,961 WASHINGTON AVENUE,10456,718-993-8070,"TLC-licensed base (FHV, Commuter Van, or Para)",
B00855 ,MAGNIFICENT 7'S ENTP INC                                    ,                                                            ,10-85 BEACH   21 STREET,11691,718-327-7777,"TLC-licensed base (FHV, Commuter Van, or Para)",
B00856 ,BEE-BEE CAR & LIMO CORP                                     ,                                                            ,569 NEW LOTS AVENUE,11207,718-498-2525,"TLC-licensed base (FHV, Commuter Van, or Para)",
B00859 ,PROMENADE CAR LEASE INC                                     ,                                                            ,68 JAY STREET,11201,718-858-6666,"TLC-licensed base (FHV, Commuter Van, or Para)",
B00860 ,SEAMAN RADIO DISPATCHERS INC                                ,                                                            ,4020 10 AVENUE,10034,212-304-1515,"TLC-licensed base (FHV, Commuter Van, or Para)",
B00874 ,A.T.B. C/L SVC INC                                          ,                                                            ,866 NEW LOTS AVENUE,11208,718-485-4444,"TLC-licensed base (FHV, Commuter Van, or Para)",
B00876 ,TOGETHER CAR SERVICE                                        ,                                                            ,218-79 HEMPSTEAD AVENUE,11429,718-740-2441,"TLC-licensed base (FHV, Commuter Van, or Para)",
B00881 ,CROSSBAY CAR SERVICE INC.                                   ,                                                            ,105-12 CROSS BAY BOULEVARD,11417,718-835-6900,"TLC-licensed base (FHV, Commuter Van, or Para)",
B00882 ,U N C CAR & LIMO SERVICE                                    ,                                                            ,2319 1 AVENUE,10035,212-427-2727,"TLC-licensed base (FHV, Commuter Van, or Para)",
B00887 ,DIAL 7 CAR & LIMOUSINE SERVICE INC.                         ,TEL AVIV CAR & LIMOUSINE SERVICE                            ,43-23 35 STREET,11101,212-505-0900,"TLC-licensed base (FHV, Commuter Van, or Para)",
B00889 ,MEXICANA CAR SERVICE INC.                                   ,                                                            ,70-18 35 AVENUE 1FL,11372,718-446-8700,"TLC-licensed base (FHV, Commuter Van, or Para)",
B00900 ,COMMUNITY QUISQUEYAC/S INC                                  ,                                                            ,86-29 102 STREET,11418,718-846-4500,"TLC-licensed base (FHV, Commuter Van, or Para)",
B00906 ,OLYMPIC OPERATING CAR SERVICE INC                           ,                                                            ,24-04 24 STREET,11102,718-626-8000,"TLC-licensed base (FHV, Commuter Van, or Para)",
B00909 ,"MEXICANOS DF CAR SERVICES, INC                              ",                                                            ,37-08 100 STREET,11368,718-424-9696,"TLC-licensed base (FHV, Commuter Van, or Para)",
B00911 ,WEBSTER C/S INC                                             ,                                                            ,1920 WEBSTER AVENUE,10457,718-731-0746,"TLC-licensed base (FHV, Commuter Van, or Para)",
B00919 ,HARLEM TRANSP CORP                                          ,                                                            ,210 ST NICHOLAS AVENUE,10027,212-663-8080,"TLC-licensed base (FHV, Commuter Van, or Para)",
B00932 ,NATASHAS GRP CAR CORP                                       ,                                                            ,372 WILSON AVENUE,11221,718-574-0155,"TLC-licensed base (FHV, Commuter Van, or Para)",
B00937 ,RIVERSIDE RADIO DISPATCHER                                  ,                                                            ,1642 ST NICHOLAS AVENUE,10040,212-923-1111,"TLC-licensed base (FHV, Commuter Van, or Para)",
B00941 ,PERSONAL TOUCH C/S                                          ,                                                            ,116-34 SPRINGFIELD BOULEVARD,11411,718-528-6100,"TLC-licensed base (FHV, Commuter Van, or Para)",
B00948 ,510 CAR SERVICE CORP                                        ,                                                            ,2225 PITKIN AVENUE,11207,718-485-7575,"TLC-licensed base (FHV, Commuter Van, or Para)",
B00955 ,GOLDEN-TOWN CAR & LIMOUSINE SERVICE INC.                    ,                                                            ,32-60 81 STREET,11370,718-429-7071,"TLC-licensed base (FHV, Commuter Van, or Para)",
B00957 ,DMD INC.                                                    ,                                                            ,6512 NEW UTRECHT AVENUE,11219,718-238-3550,"TLC-licensed base (FHV, Commuter Van, or Para)",
B00965 ,GOODFELLOWS CAR SERVICE INC.                                ,NEW PORT CAR SERVICE                                        ,2 TOMPKINS AVENUE,10304,718-720-4444,"TLC-licensed base (FHV, Commuter Van, or Para)",
B00972 ,N.J.M.INC.                                                  ,MID ISLAND CAR SVCE                                         ,566 INDUSTRIAL LOOP,10309,718-967-2500,"TLC-licensed base (FHV, Commuter Van, or Para)",
B00975 ,"T.J.Q. CAR SERVICE, INC.                                    ",QUALITY CAR SVCE                                            ,4912 AVENUE D,11203,718-629-2540,"TLC-licensed base (FHV, Commuter Van, or Para)",
B00977 ,SUN FAT TAT EXP CORP                                        ,                                                            ,120 FORSYTH STREET BASEMENT,10002,212-431-5919,"TLC-licensed base (FHV, Commuter Van, or Para)",
B00983 ,"1431 CAR SERVICE, INC.                                      ",THREE GUY'S CAR SVCE                                        ,1845 ROCKAWAY PARKWAY,11236,718-257-1100,"TLC-licensed base (FHV, Commuter Van, or Para)",
B00984 ,P J CAR SVCE                                                ,                                                            ,205-25 HILLSIDE AVENUE,11423,718-479-7676,"TLC-licensed base (FHV, Commuter Van, or Para)",
B00987 ,AHSAN INC.                                                  ,MARLBORO CAR SERVICE                                        ,1510 NEWKIRK AVENUE,11226,718-434-2230,"TLC-licensed base (FHV, Commuter Van, or Para)",
B00990 ,"MIRAGE LIMOUSINE SERVICE, INC.                              ",UFO PVT C/L SERVICE                                         ,47-09 5 STREET,11101,718-937-7500,"TLC-licensed base (FHV, Commuter Van, or Para)",
B00991 ,P F MANAGEMENT INC                                          ,                                                            ,104-19 99 STREET,11417,718-738-1348,"TLC-licensed base (FHV, Commuter Van, or Para)",
B00992 ,LINDA & M TRANSPORTATION INC.                               ,NEW YORKER C/S                                              ,25-77 STEINWAY STREET,11103,718-777-5555,"TLC-licensed base (FHV, Commuter Van, or Para)",
B01009 ,UNITED LIMO C/M SVC CORP                                    ,                                                            ,208 ROSS STREET,11211,718-387-6175,"TLC-licensed base (FHV, Commuter Van, or Para)",
B01010 ,COLUMBIA STREET CAR SVC INC                                 ,COLUMBIA STREET LIMOUSINE SERVICE INC                       ,429 COLUMBIA STREET,11231,717-834-0333,"TLC-licensed base (FHV, Commuter Van, or Para)",
B01013 ,AMERICANA TRANSPORTATION LLC                                ,                                                            ,1921 MCDONALD AVENUE,11223,718-615-1111,"TLC-licensed base (FHV, Commuter Van, or Para)",
B01016 ,810 CAR SVCE CORP                                           ,                                                            ,2672 PITKIN AVENUE,11208,718-235-3480,"TLC-licensed base (FHV, Commuter Van, or Para)",
B01020 ,MICHAELS CAR SERVICE INC.                                   ,UNION LIMO AND CAR SERVICE                                  ,311 KINGSTON AVENUE,11213,718-771-3000,"TLC-licensed base (FHV, Commuter Van, or Para)",
B01021 ,PAMELENE TRANSPORTATION CORP.                               ,SEA BREEZE C/S                                              ,3089 BRIGHTON    3 STREET,11235,718-332-7500,"TLC-licensed base (FHV, Commuter Van, or Para)",
B01028 ,"MAUSER SERVICE, INC.                                        ",NU NU CAR SVCE                                              ,169-25 137 AVENUE,11434,718-525-2943,"TLC-licensed base (FHV, Commuter Van, or Para)",
B01029 ,ZION C/S INC                                                ,                                                            ,4920 NEW UTRECHT AVENUE,11219,718-871-4000,"TLC-licensed base (FHV, Commuter Van, or Para)",
B01039 ,"BNEI JOSEPH CAR & LIMO SERVICE, INC.                        ",BNEI JOSEPH CAR SERVICE                                     ,4311 16 AVENUE,11204,718-972-8282,"TLC-licensed base (FHV, Commuter Van, or Para)",
B01041 ,18TH AVENUE TOO INC                                         ,                                                            ,8439 NEW UTRECHT AVENUE,11214,718-266-3000,"TLC-licensed base (FHV, Commuter Van, or Para)",
B01045 ,CAPRICE CAR SERVICE NO.2 INC.                               ,                                                            ,135-16 37 AVENUE,11354,718-460-3434,"TLC-licensed base (FHV, Commuter Van, or Para)",
B01048 ,HILLSIDE 24 HOURS RADIO DISPATCH INC                        ,                                                            ,87-52 169 STREET,11432,718-739-2222,"TLC-licensed base (FHV, Commuter Van, or Para)",
B01051 ,B Q N C/S CORP                                              ,                                                            ,1104 GARRISON AVENUE,10474,718-328-1111,"TLC-licensed base (FHV, Commuter Van, or Para)",
B01056 ,UNITY CAR SVCE INC                                          ,                                                            ,87-62 PARSONS BOULEVARD,11432,718-297-2222,"TLC-licensed base (FHV, Commuter Van, or Para)",
B01057 ,NEW AMERICAN C/L SVC                                        ,                                                            ,221 DITMAS AVENUE,11218,718-972-7979,"TLC-licensed base (FHV, Commuter Van, or Para)",
B01061 ,DAT RADIO DISP INC                                          ,                                                            ,650 SOUNDVIEW AVENUE,10473,718-328-8888,"TLC-licensed base (FHV, Commuter Van, or Para)",
B01065 ,BARRIOS CAR SERVICE                                         ,                                                            ,218 EAST  116 STREET,10029,212-722-5555,"TLC-licensed base (FHV, Commuter Van, or Para)",
B01066 ,DOMINICANA RAD DISP INC                                     ,                                                            ,101-09 NORTHERN BOULEVARD,11368,718-507-1700,"TLC-licensed base (FHV, Commuter Van, or Para)",
B01069 ,RPO CAR AND LIMOUSINE SERVICE INC.                          ,                                                            ,128-02 LIBERTY AVENUE,11419,718-641-8956,"TLC-licensed base (FHV, Commuter Van, or Para)",
B01079 ,THE METRO MARINE CAR SERVICE INC                            ,MARINE LIMO & CAR SERVICE                                   ,9126 4 AVENUE,11209,718-745-6565,"TLC-licensed base (FHV, Commuter Van, or Para)",
B01081 ,SPRING CREEK MANAGEMENT INC                                 ,                                                            ,919 EAST  107 STREET,11236,718-642-2222,"TLC-licensed base (FHV, Commuter Van, or Para)",
B01083 ,BROAD DYCKMAN C/S INC                                       ,                                                            ,200 DYCKMAN STREET,10040,212-304-8080,"TLC-licensed base (FHV, Commuter Van, or Para)",
B01088 ,PAISA 2 CAR  AND LIMOUSINE SERVICE INC                      ,                                                            ,69-11 48 AVENUE,11377,718-335-5050,"TLC-licensed base (FHV, Commuter Van, or Para)",
B01091 ,A & R GOLDEN EXP INC                                        ,                                                            ,5802 13 AVENUE,11219,718-972-6666,"TLC-licensed base (FHV, Commuter Van, or Para)",
B01100 ,MELMAC SERVICE GROUP CORP.                                  ,ECONO EXPRESS CAR SERVICE.                                  ,217 ROGERS AVENUE,11225,718-493-1133,"TLC-licensed base (FHV, Commuter Van, or Para)",
B01103 ,BLISS 48 INC                                                ,                                                            ,39-10 47 AVENUE,11104,718-706-7788,"TLC-licensed base (FHV, Commuter Van, or Para)",
B01109 ,UNITED EXP C/L SVCE                                         ,                                                            ,1025 ATLANTIC AVENUE 1 FLOOR,11238,718-452-4000,"TLC-licensed base (FHV, Commuter Van, or Para)",
B01118 ,INTERNATIONAL CAR SERVICE INC.                              ,                                                            ,623 WASHINGTON AVENUE,11238,718-230-0808,"TLC-licensed base (FHV, Commuter Van, or Para)",
B01124 ,COOPERATIVA CLBNA DE CON INC                                ,                                                            ,109-20 CORONA AVENUE,11368,718-699-0960,"TLC-licensed base (FHV, Commuter Van, or Para)",
B01126 ,U-NEED CAR SERVICE                                          ,                                                            ,204-20 HILLSIDE AVENUE,11423,718-479-2200,"TLC-licensed base (FHV, Commuter Van, or Para)",
B01128 ,PAK-EAGLE INC.                                              ,JEWEL CAR SERVICE                                           ,72-55 KISSENA BOULEVARD,11367,718-575-1212,"TLC-licensed base (FHV, Commuter Van, or Para)",
B01129 ,GTWY INC                                                    ,GATEWAY CAR & LIMO SVCE                                     ,4115 AVENUE U,11234,718-253-5600,"TLC-licensed base (FHV, Commuter Van, or Para)",
B01131 ,NEW ENRICO'S C/S CORP                                       ,                                                            ,32-09 37 STREET,11103,718-728-5599,"TLC-licensed base (FHV, Commuter Van, or Para)",
B01145 ,ULTRA RADIO DISP SVC INC                                    ,                                                            ,277 EAST  165 STREET,10456,718-992-8000,"TLC-licensed base (FHV, Commuter Van, or Para)",
B01146 ,CHURCH AVE C/S INC                                          ,                                                            ,3411 14 AVENUE,11218,718-633-4444,"TLC-licensed base (FHV, Commuter Van, or Para)",
B01148 ,EVELYN CAR SERVICE INC                                      ,                                                            ,587 VANDERBILT AVENUE,11238,718-230-8244,"TLC-licensed base (FHV, Commuter Van, or Para)",
B01160 ,NEW MAZEL CORP                                              ,                                                            ,5508 13 AVENUE,11219,718-871-9000,"TLC-licensed base (FHV, Commuter Van, or Para)",
B01175 ,PACIFIC EXPRESS CAR SERVICE INC.                            ,                                                            ,20 4 AVENUE,11217,718-488-0000,"TLC-licensed base (FHV, Commuter Van, or Para)",
B01176 ,SANTO DOMINGO C/S INC                                       ,                                                            ,96-28 ALSTYNE AVENUE,11368,718-899-5050,"TLC-licensed base (FHV, Commuter Van, or Para)",
B01177 ,SLMK INC.                                                   ,AA PDQ CAR & LIMOUSINE SERVICE                              ,658 NEW DORP LANE,10306,718-356-6666,"TLC-licensed base (FHV, Commuter Van, or Para)",
B01186 ,SIWR INC                                                    ,WADSWORTH CAR SERVICE                                       ,1254 BAY STREET,10305,718-442-4242,"TLC-licensed base (FHV, Commuter Van, or Para)",
B01187 ,NEW RIDGEWOOD C/S INC                                       ,                                                            ,1538 GATES AVENUE,11237,718-456-0777,"TLC-licensed base (FHV, Commuter Van, or Para)",
B01190 ,NEW BELL CAR SERVICE CORP                                   ,                                                            ,640 MYRTLE AVENUE,11205,718-230-4499,"TLC-licensed base (FHV, Commuter Van, or Para)",
B01194 ,440 CAR SERVICE INC.                                        ,                                                            ,1266 MYRTLE AVENUE FIRST FLOOR,11221,718-919-4040,"TLC-licensed base (FHV, Commuter Van, or Para)",
B01195 ,ALEX II                                                     ,                                                            ,7718 3 AVENUE,11209,718-680-8700,"TLC-licensed base (FHV, Commuter Van, or Para)",
B01196 ,DIPLO RAD DISP INC                                          ,                                                            ,2304 SEDGWICK AVENUE STORE 1,10468,718-365-8580,"TLC-licensed base (FHV, Commuter Van, or Para)",
B01200 ,NEW YORK APPLE CAR SERVICE INC                              ,N Y LIMO & CAR SVCE                                         ,1126 BUSHWICK AVENUE,11221,718-455-2121,"TLC-licensed base (FHV, Commuter Van, or Para)",
B01215 ,ECUADOOR CORP                                               ,                                                            ,44-10 30 AVENUE,11103,718-204-8412,"TLC-licensed base (FHV, Commuter Van, or Para)",
B01222 ,ANDREA CAR SVCE INC                                         ,                                                            ,40-21B 35 AVENUE,11101,718-392-9191,"TLC-licensed base (FHV, Commuter Van, or Para)",
B01231 ,G.A.L LIMO SERVICES INC.                                    ,HANA CAR SERVICE & LIMOUSINE                                ,6623 FORT HAMILTON PARKWAY,11219,718-921-4848,"TLC-licensed base (FHV, Commuter Van, or Para)",
B01233 ,NEW LACONIA RAD DISP INC                                    ,                                                            ,3934 LACONIA AVENUE,10466,718-798-2222,"TLC-licensed base (FHV, Commuter Van, or Para)",
B01234 ,BAILEY RAD DISP INC                                         ,                                                            ,131 WEST KINGSBRIDGE ROAD,10468,718-364-7878,"TLC-licensed base (FHV, Commuter Van, or Para)",
B01239 ,BEST DEAL PVT C/S INC                                       ,                                                            ,757A BURKE AVENUE,10467,718-882-1504,"TLC-licensed base (FHV, Commuter Van, or Para)",
B01243 ,EILAT TRANSPORTATION CORP                                   ,MANHATTAN CAR SERVICE                                       ,461 KINGS HIGHWAY,11223,212-226-7444,"TLC-licensed base (FHV, Commuter Van, or Para)",
B01244 ,MASADA II C/L SVC INC                                       ,                                                            ,63-51 AUSTIN STREET,11375,718-805-9090,"TLC-licensed base (FHV, Commuter Van, or Para)",
B01247 ,ALL AMERICAN C/S                                            ,                                                            ,6201 FT HAMILTON PARKWAY,11219,718-238-4440,"TLC-licensed base (FHV, Commuter Van, or Para)",
B01250 ,VIN JAC CORP                                                ,GLEN BELLE CAR SERVICE                                      ,264-12 HILLSIDE AVENUE,11004,718-347-3222,"TLC-licensed base (FHV, Commuter Van, or Para)",
B01256 ,BRIGHTON 1 CAR & LIMO SVC. INC.                             ,                                                            ,3072 BRIGHTON    1 STREET,11235,917-974-3443,"TLC-licensed base (FHV, Commuter Van, or Para)",
B01259 ,THE NEW BROOKLYN C/S INC                                    ,                                                            ,390 BROADWAY 1FL,11211,718-388-2828,"TLC-licensed base (FHV, Commuter Van, or Para)",
B01263 ,RACHEL'S C/S INC                                            ,                                                            ,548 EAST    2 STREET,11218,718-972-2223,"TLC-licensed base (FHV, Commuter Van, or Para)",
B01264 ,ECUATORIANA CAR AND LIMOUSINE SERVICE INC.                  ,                                                            ,31-08 21 STREET,11106,718-956-4474,"TLC-licensed base (FHV, Commuter Van, or Para)",
B01265 ,CAPRICE C/S CORP                                            ,                                                            ,54-04 ROOSEVELT AVENUE,11377,718-424-9300,"TLC-licensed base (FHV, Commuter Van, or Para)",
B01268 ,LAKEVIEW CARS INC.                                          ,CLOVE LAKE CARS                                             ,1113 VICTORY BOULEVARD,10301,718-442-0022,"TLC-licensed base (FHV, Commuter Van, or Para)",
B01269 ,DIVISION CAR & LIMO INC.                                    ,NATANYA TRANSPORTATION                                      ,204 DIVISION AVENUE,11211,718-599-5555,"TLC-licensed base (FHV, Commuter Van, or Para)",
B01270 ,SKYLINE C/L SVC INC                                         ,SKYLINE C/L SVC INC                                         ,3850 BRONXWOOD AVENUE,10469,718-881-2777,"TLC-licensed base (FHV, Commuter Van, or Para)",
B01273 ,PUERTO RICO C/S INC                                         ,                                                            ,1072 BROADWAY,11221,718-443-9600,"TLC-licensed base (FHV, Commuter Van, or Para)",
B01274 ,EMES OF BOROPARK C/S INC                                    ,                                                            ,5401 13 AVENUE,11219,718-871-7300,"TLC-licensed base (FHV, Commuter Van, or Para)",
B01277 ,D & J SVCE INC                                              ,CITICAR PRIVATE CAR SERVICE                                 ,2622 CHESBROUGH AVENUE,10461,718-828-8888,"TLC-licensed base (FHV, Commuter Van, or Para)",
B01280 ,BENSONHURST RIDE INC.                                       ,                                                            ,7 BAY   28 STREET,11214,718-946-1500,"TLC-licensed base (FHV, Commuter Van, or Para)",
B01282 ,NEW LOTS C/S INC                                            ,                                                            ,603 NEW LOTS AVENUE,11207,718-272-2222,"TLC-licensed base (FHV, Commuter Van, or Para)",
B01285 ,UNION RADIO DISPATCH INC                                    ,                                                            ,69 FEATHERBED LANE,10452,718-299-4000,"TLC-licensed base (FHV, Commuter Van, or Para)",
B01288 ,NEW ELEGANTE CAR SVC INC                                    ,                                                            ,5911 4 AVENUE,11220,718-833-6262,"TLC-licensed base (FHV, Commuter Van, or Para)",
B01289 ,PRESTIJ TRANSP INC                                          ,                                                            ,387 AVENUE X,11223,718-336-5200,"TLC-licensed base (FHV, Commuter Van, or Para)",
B01292 ,SHEPREID CAR SERVICE AND LIMOUSINE CORP.                    ,DELTA CAR SVCE                                              ,160-30 BAISLEY BOULEVARD,11434,718-527-1010,"TLC-licensed base (FHV, Commuter Van, or Para)",
B01300 ,KENNEDY RAD DISP INC                                        ,                                                            ,3760 BROADWAY,10032,212-283-5858,"TLC-licensed base (FHV, Commuter Van, or Para)",
B01306 ,"R N D TRANSPORTATION, INC.                                  ",MALONES CAR SVCE                                            ,135 GREENPOINT AVENUE,11222,718-383-6345,"TLC-licensed base (FHV, Commuter Van, or Para)",
B01308 ,LIL'D DISPATCH INC.                                         ,STRICTLY CAR SERVICE                                        ,6512 NEW UTRECHT AVENUE,11219,718-837-7000,"TLC-licensed base (FHV, Commuter Van, or Para)",
B01311 ,DISCOUNT CAR SVCE                                           ,                                                            ,94-47 212 STREET,11428,718-740-0101,"TLC-licensed base (FHV, Commuter Van, or Para)",
B01312 ,BROOKLYN RAD DISP INC                                       ,                                                            ,232 METROPOLITAN AVENUE,11211,718-384-8000,"TLC-licensed base (FHV, Commuter Van, or Para)",
B01313 ,BROOK CAR & LIMO SERVICE INC.                               ,                                                            ,453 EAST  164 STREET,10456,718-583-9100,"TLC-licensed base (FHV, Commuter Van, or Para)",
B01315 ,"V.I.T. CAR SERVICE, INC.                                    ",                                                            ,1478 WHITE PLAINS ROAD,10462,718-904-8057,"TLC-licensed base (FHV, Commuter Van, or Para)",
B01318 ,LOWER EAST SIDE C/S CORP                                    ,                                                            ,169 AVENUE C,10009,212-477-7777,"TLC-licensed base (FHV, Commuter Van, or Para)",
B01326 ,DEBORAH C/L SVC INC                                         ,                                                            ,35-28 19 AVENUE,11105,718-803-1920,"TLC-licensed base (FHV, Commuter Van, or Para)",
B01327 ,CONTINENTAL C/L SVCE                                        ,                                                            ,313 9 STREET,11215,718-499-0909,"TLC-licensed base (FHV, Commuter Van, or Para)",
B01328 ,COMMACK INC.                                                ,BARONA'S CAR SVCE                                           ,55-20 37 AVENUE FL,11377,718-424-4141,"TLC-licensed base (FHV, Commuter Van, or Para)",
B01332 ,SKYWAY CAR SERVICE EXPRESS INC.                             ,                                                            ,68-20A FRESH MEADOW LANE,11365,718-358-5858,"TLC-licensed base (FHV, Commuter Van, or Para)",
B01336 ,BAY EXPRESS CORP.                                           ,                                                            ,8507 BAY PARKWAY,11214,718-232-3434,"TLC-licensed base (FHV, Commuter Van, or Para)",
B01338 ,3210 WEBSTER AV PRESTIGE C/S                                ,                                                            ,3108 WEBSTER AVENUE,10467,718-798-7700,"TLC-licensed base (FHV, Commuter Van, or Para)",
B01339 ,R C AUDUBON SVC INC                                         ,                                                            ,2129 AMSTERDAM AVENUE,10032,212-923-8787,"TLC-licensed base (FHV, Commuter Van, or Para)",
B01340 ,UNICAR COMPANY INC                                          ,                                                            ,1684 GLEASON AVENUE,10472,718-931-5555,"TLC-licensed base (FHV, Commuter Van, or Para)",
B01341 ,A NEW DAY RAD DISP INC                                      ,                                                            ,84 CLINTON STREET,10002,212-228-6666,"TLC-licensed base (FHV, Commuter Van, or Para)",
B01343 ,ALL PEOPLE CAR SERVICE INC.                                 ,                                                            ,932 UTICA AVENUE,11203,718-282-3700,"TLC-licensed base (FHV, Commuter Van, or Para)",
B01346 ,ARECIBO C/S INC                                             ,                                                            ,170 5 AVENUE,11217,718-783-6465,"TLC-licensed base (FHV, Commuter Van, or Para)",
B01351 ,HADERECH INC                                                ,                                                            ,4724 18 AVENUE,11204,718-438-5400,"TLC-licensed base (FHV, Commuter Van, or Para)",
B01353 ,DYKER EXPRESS INC.                                          ,DYKER EXPRESS INC.                                          ,9413 3 AVENUE,11209,718-833-3838,"TLC-licensed base (FHV, Commuter Van, or Para)",
B01355 ,NEW HARLEM C/S INC                                          ,                                                            ,2134 8 AVENUE,10026,212-663-9090,"TLC-licensed base (FHV, Commuter Van, or Para)",
B01362 ,AMERICAN BASE NO.1 INC.                                     ,                                                            ,522 EAST  149 STREET,10455,718-665-6664,"TLC-licensed base (FHV, Commuter Van, or Para)",
B01363 ,"MYRTLE AVE CAR & LIMOUSINE SVCS, CORP                       ",                                                            ,525 MYRTLE AVENUE,11205,718-230-8100,"TLC-licensed base (FHV, Commuter Van, or Para)",
B01379 ,J.J.S. TRANSPORTATION CO. INC.                              ,GRANT CITY CAR SVC                                          ,246 PARKINSON AVENUE,10305,718-979-6200,"TLC-licensed base (FHV, Commuter Van, or Para)",
B01380 ,"MALCOLM LIMO EXPRESS, CORP.                                 ",                                                            ,2548 8 AVENUE,10030,212-690-4000,"TLC-licensed base (FHV, Commuter Van, or Para)",
B01381 ,CLASSIC CAR SERVICE CORP.                                   ,PAISA CLASSIC                                               ,38-12 ASTORIA BOULEVARD,11103,718-728-1200,"TLC-licensed base (FHV, Commuter Van, or Para)",
B01386 ,FENIX CAR SVCE CORP                                         ,                                                            ,586 SENECA AVENUE,11385,718-821-2121,"TLC-licensed base (FHV, Commuter Van, or Para)",
B01389 ,METRO LUXURY INC                                            ,                                                            ,625 EAST  137 STREET,10454,718-665-4900,"TLC-licensed base (FHV, Commuter Van, or Para)",
B01391 ,ROSE 'N' DALE C/S INC                                       ,                                                            ,143-55 243 STREET,11422,718-949-1655,"TLC-licensed base (FHV, Commuter Van, or Para)",
B01392 ,NEW AMERICAN CLASS L/C SERVICE CORP.                        ,                                                            ,49-11A 43 AVENUE 1FL,11377,718-426-2929,"TLC-licensed base (FHV, Commuter Van, or Para)",
B01394 ,V & M  TRANSPORTATION CORP.                                 ,EMPIRE CAR & LIMO SERVICE                                   ,1026 49 STREET,11219,718-972-7212,"TLC-licensed base (FHV, Commuter Van, or Para)",
B01397 ,U.C. COLUMBUS RAD DISP INC                                  ,                                                            ,100 WEST 106 STREET,10025,212-316-1119,"TLC-licensed base (FHV, Commuter Van, or Para)",
B01398 ,ALEX EXP C/L INC                                            ,                                                            ,1747 WEST    6 STREET,11223,718-998-9800,"TLC-licensed base (FHV, Commuter Van, or Para)",
B01406 ,GOTHAM CAR SERVICE INC.                                     ,LEGEND CAR SERVICE                                          ,88A 4 AVENUE,11217,718-788-1234,"TLC-licensed base (FHV, Commuter Van, or Para)",
B01416 ,MY CAR SERVICE INC                                          ,                                                            ,135 MONTGOMERY AVENUE,10301,718-720-5400,"TLC-licensed base (FHV, Commuter Van, or Para)",
B01417 ,NESHER EXPRESS CAR SERVICE INC                              ,                                                            ,1309 50 STREET,11219,718-871-6800,"TLC-licensed base (FHV, Commuter Van, or Para)",
B01420 ,A.M.N. MANAGEMENT INC.                                      ,ALWAYS READY C/S                                            ,69-38 76 STREET,11379,718-416-0723,"TLC-licensed base (FHV, Commuter Van, or Para)",
B01422 ,VERRAZANO CAR & LIMO SERVICE INC.                           ,                                                            ,453 87 STREET,11209,718-680-1000,"TLC-licensed base (FHV, Commuter Van, or Para)",
B01432 ,TOVAR TRANSPORTATION INC                                    ,                                                            ,5511 16 AVENUE,11204,718-972-8877,"TLC-licensed base (FHV, Commuter Van, or Para)",
B01433 ,FANNY RADIO DISPATCHER SERVICE INC                          ,                                                            ,128-22 LIBERTY AVENUE,11419,718-641-7800,"TLC-licensed base (FHV, Commuter Van, or Para)",
B01435 ,KEYKAB SERVICES INC.                                        ,                                                            ,2538 8 AVENUE,10030,212-491-6666,"TLC-licensed base (FHV, Commuter Van, or Para)",
B01436 ,NEW PRONTO TRANSP INC                                       ,                                                            ,41-09 49 STREET,11104,718-457-5777,"TLC-licensed base (FHV, Commuter Van, or Para)",
B01437 ,MERENGUE LIMO & C/S INC                                     ,                                                            ,135-10 JAMAICA AVENUE,11418,718-658-5700,"TLC-licensed base (FHV, Commuter Van, or Para)",
B01444 ,REGO PARK EXPRESS INC.                                      ,                                                            ,66-20 99 STREET,11374,718-997-9700,"TLC-licensed base (FHV, Commuter Van, or Para)",
B01445 ,J T TRANS CO INC                                            ,                                                            ,775 60 STREET,11220,718-439-8899,"TLC-licensed base (FHV, Commuter Van, or Para)",
B01451 ,LINDENBAUM SUPPLY CO. INC.                                  ,COURT EXP C/L SVC                                           ,534 COURT STREET,11231,718-237-8888,"TLC-licensed base (FHV, Commuter Van, or Para)",
B01452 ,AREA'S TWO TRANSP INC                                       ,                                                            ,5230 ARTHUR KILL ROAD,10307,718-967-3232,"TLC-licensed base (FHV, Commuter Van, or Para)",
B01453 ,ST GEORGE EXP C/S INC                                       ,                                                            ,21 BROOK STREET,10301,718-473-1003,"TLC-licensed base (FHV, Commuter Van, or Para)",
B01454 ,FREEDOM LIMO & CAR SERVICE                                  ,                                                            ,104 RALPH AVENUE,11221,718-452-5400,"TLC-licensed base (FHV, Commuter Van, or Para)",
B01455 ,DOMINICANA LIMOUSINE SERVICES INC.                          ,                                                            ,93-04 CORONA AVENUE,11373,718-271-6666,"TLC-licensed base (FHV, Commuter Van, or Para)",
B01461 ,NORTH SHORE CAR & LIMO CORP                                 ,U S ONE CAR SERVICE                                         ,34 RECTOR STREET,10310,718-442-8100,"TLC-licensed base (FHV, Commuter Van, or Para)",
B01465 ,IVETTE CAR SERVICE                                          ,                                                            ,2958 FULTON STREET,11207,718-647-0505,"TLC-licensed base (FHV, Commuter Van, or Para)",
B01466 ,FIVE STAR                                                   ,                                                            ,787 CONEY ISLAND AVENUE,11218,718-940-0044,"TLC-licensed base (FHV, Commuter Van, or Para)",
B01467 ,NEW EXPERIENCE #1 INC                                       ,                                                            ,38-33B 29 STREET,11101,718-729-5756,"TLC-licensed base (FHV, Commuter Van, or Para)",
B01468 ,MEGA RADIO DISPATCHER INC                                   ,                                                            ,1161 SOUTHERN BOULEVARD,10459,718-328-3434,"TLC-licensed base (FHV, Commuter Van, or Para)",
B01469 ,BROTHERS CAR SERVICE                                        ,                                                            ,241 CRESCENT STREET,11208,718-235-1100,"TLC-licensed base (FHV, Commuter Van, or Para)",
B01470 ,NEWYORK VELOTAX CAR SERVICE INC.                            ,                                                            ,45-16 NATIONAL STREET,11368,718-699-8100,"TLC-licensed base (FHV, Commuter Van, or Para)",
B01472 ,ALLEN CAR SVCE INC                                          ,                                                            ,120 FORSYTH STREET,10002,212-226-8999,"TLC-licensed base (FHV, Commuter Van, or Para)",
B01475 ,"MIDWOOD VS, INC                                             ",                                                            ,1793 MC DONALD AVENUE,11230,718-382-7777,"TLC-licensed base (FHV, Commuter Van, or Para)",
B01478 ,UNIWORLD BROS ENTP INC.                                     ,                                                            ,162-04 CROCHERON AVENUE 2FL,11358,718-888-9999,"TLC-licensed base (FHV, Commuter Van, or Para)",
B01479 ,PRATT CAR SERVICE                                           ,                                                            ,562 MYRTLE AVENUE,11205,718-789-4900,"TLC-licensed base (FHV, Commuter Van, or Para)",
B01482 ,GDR CAR & LIMO INC                                          ,SEASIDE CAR SERVICE                                         ,3173 CONEY ISLAND AVENUE,11235,718-646-6666,"TLC-licensed base (FHV, Commuter Van, or Para)",
B01485 ,FLAMINGO TRANSP. & LIMO. SERVICES INC.                      ,                                                            ,1226 NOSTRAND AVENUE,11225,718-493-4306,"TLC-licensed base (FHV, Commuter Van, or Para)",
B01487 ,NEW RELAMPAGO C/S CORP                                      ,                                                            ,355 UNION AVENUE,11211,718-384-2828,"TLC-licensed base (FHV, Commuter Van, or Para)",
B01489 ,LINCOLN LIMO BROK'AGE INC                                   ,                                                            ,19-23 DITMARS BOULEVARD,11105,718-728-5466,"TLC-licensed base (FHV, Commuter Van, or Para)",
B01492 ,MOBIL CAR SERVICE INC                                       ,                                                            ,361 UNION AVENUE,11211,718-383-8300,"TLC-licensed base (FHV, Commuter Van, or Para)",
B01495 ,BLACK SEA C/L SVCE INC                                      ,                                                            ,512 74 STREET,11209,718-921-9595,"TLC-licensed base (FHV, Commuter Van, or Para)",
B01497 ,FLUSHING EXPRESS CORP                                       ,FLUSHING EXPRESS CAR SERVICE                                ,41-73B BOWNE STREET,11355,718-961-2222,"TLC-licensed base (FHV, Commuter Van, or Para)",
B01498 ,MEGA CAR SVCE CORP                                          ,                                                            ,401 45 STREET,11220,718-633-2020,"TLC-licensed base (FHV, Commuter Van, or Para)",
B01506 ,HOYT LIMO & SVC CORP                                        ,                                                            ,23-03 ASTORIA BOULEVARD,11102,718-204-5861,"TLC-licensed base (FHV, Commuter Van, or Para)",
B01509 ,"BRUNWISH ENTERPRISES,LTD.                                   ",EASTLAND CAR SERVICE                                        ,1907 CONEY ISLAND AVENUE,11230,718-382-6868,"TLC-licensed base (FHV, Commuter Van, or Para)",
B01510 ,WAHEGURU TRANSPORTATION INC.                                ,PARSONS C/S INC.                                            ,159-06 HILLSIDE AVENUE,11432,718-206-3300,"TLC-licensed base (FHV, Commuter Van, or Para)",
B01514 ,ACCORD C/L SVC INC                                          ,                                                            ,47-16 48 AVENUE,11377,718-786-2226,"TLC-licensed base (FHV, Commuter Van, or Para)",
B01522 ,"STM ENTERPRISES,INC                                         ",JAVA CAR & LIMOUSINE SERVICE                                ,1008 MANHATTAN AVENUE,11222,718-383-5555,"TLC-licensed base (FHV, Commuter Van, or Para)",
B01525 ,NORTHSIDE LUXURY INC.                                       ,NORTHSIDE CAR SERVICE                                       ,207 BEDFORD AVENUE,11211,718-387-2222,"TLC-licensed base (FHV, Commuter Van, or Para)",
B01527 ,NEW FAMILY RAD DISP INC                                     ,                                                            ,695 AMSTERDAM AVENUE,10025,212-749-7777,"TLC-licensed base (FHV, Commuter Van, or Para)",
B01529 ,J.I.G. TRANSPORT CORP.                                      ,NEW EASTERN C/L SVCE                                        ,100 BUSHWICK AVENUE,11206,718-599-3232,"TLC-licensed base (FHV, Commuter Van, or Para)",
B01534 ,METRO CAR SERVICE CORP.                                     ,METROLINE CAR SERVICE                                       ,390 METROPOLITAN AVENUE,11211,718-388-1800,"TLC-licensed base (FHV, Commuter Van, or Para)",
B01536 ,FIRST CLASS C/L SVC CORP                                    ,                                                            ,4980 BROADWAY,10034,212-304-1111,"TLC-licensed base (FHV, Commuter Van, or Para)",
B01537 ,S.I. SPEED INC.                                             ,                                                            ,16 GIFFORDS LANE,10308,718-227-6666,"TLC-licensed base (FHV, Commuter Van, or Para)",
B01538 ,FAMILY SAN JUAN RADIO DISP                                  ,                                                            ,1787 AMSTERDAM AVENUE,10031,212-781-2840,"TLC-licensed base (FHV, Commuter Van, or Para)",
B01540 ,ROCKAWAY CAR AND LIMO SVC. INC.                             ,                                                            ,122-21 ROCKAWAY BOULEVARD,11420,718-845-2545,"TLC-licensed base (FHV, Commuter Van, or Para)",
B01541 ,RED CARPET CAR SERVICES CORP                                ,                                                            ,114-43 FARMERS BOULEVARD,11412,718-776-5900,"TLC-licensed base (FHV, Commuter Van, or Para)",
B01546 ,BELLE ROCK OF BEACHCHANNEL INC                              ,                                                            ,114-04 BEACH CHANNEL DRIVE,11694,718-634-8282,"TLC-licensed base (FHV, Commuter Van, or Para)",
B01552 ,ACTIVE EXPRESS CAR & LIMO SERVICE INC                       ,                                                            ,2939 AVENUE Y,11235,718-769-7777,"TLC-licensed base (FHV, Commuter Van, or Para)",
B01553 ,CITY LINE CAR SERVICE INC                                   ,                                                            ,80-06 101 AVENUE,11416,718-323-5635,"TLC-licensed base (FHV, Commuter Van, or Para)",
B01559 ,MUNKACS CAR SVC LTD                                         ,                                                            ,4023 15 AVENUE,11218,718-854-1267,"TLC-licensed base (FHV, Commuter Van, or Para)",
B01565 ,R & B CAR LIMO CORP                                         ,                                                            ,1011 AVENUE Z,11235,718-332-7222,"TLC-licensed base (FHV, Commuter Van, or Para)",
B01568 ,N.Y. MEXICANA CAR & LIMO SVC CRP.                           ,N.Y. MEXICANA CAR SERVICE                                   ,49-06 JUNCTION BOULEVARD,11373,718-592-1300,"TLC-licensed base (FHV, Commuter Van, or Para)",
B01569 ,SHAHEEDA CORP                                               ,JAMAICA EXPRESS #2 CAR SERVICE                              ,120-20 101 AVENUE,11419,718-846-5200,"TLC-licensed base (FHV, Commuter Van, or Para)",
B01578 ,TOP LIMOUSINE SVCE INC                                      ,                                                            ,3433 3 AVENUE,10456,718-742-7322,"TLC-licensed base (FHV, Commuter Van, or Para)",
B01593 ,EVERGREEN TRANS. INC.                                       ,SKYWAY                                                      ,77-33 164 STREET,11366,718-591-7000,"TLC-licensed base (FHV, Commuter Van, or Para)",
B01594 ,ATHENIAN LIMO INC                                           ,ACROPOLIS                                                   ,22-06 CRESCENT STREET,11105,718-274-7000,"TLC-licensed base (FHV, Commuter Van, or Para)",
B01600 ,R & N CAR SERVICE INC.                                      ,EVERYWHERE CAR SERVICE                                      ,179-36 HILLSIDE AVENUE,11432,718-658-2233,"TLC-licensed base (FHV, Commuter Van, or Para)",
B01601 ,YOURS CAR SERVICE INC                                       ,                                                            ,7205 3 AVENUE,11209,718-680-2900,"TLC-licensed base (FHV, Commuter Van, or Para)",
B01606 ,LA MEXICANA EXPRESS INC.                                    ,                                                            ,4604 7 AVENUE,11220,718-437-5555,"TLC-licensed base (FHV, Commuter Van, or Para)",
B01608 ,JERUSALEM CAR COM.INC.                                      ,                                                            ,461 KINGS HIGHWAY,11223,212-996-6600,"TLC-licensed base (FHV, Commuter Van, or Para)",
B01614 ,R TRANSPORT INC                                             ,1021 AVENUE H                                               ,1021 AVENUE H,11230,718-859-3400,"TLC-licensed base (FHV, Commuter Van, or Para)",
B01616 ,"H & B CAR AND LIMOUSINE, INC                                ",SUNNYSIDE CAR SERVICE                                       ,32-68 58 STREET,11377,718-507-2600,"TLC-licensed base (FHV, Commuter Van, or Para)",
B01617 ,ABSOLUTE CAR & LIMO SVC INC                                 ,                                                            ,7823 17 AVENUE,11214,718-232-5555,"TLC-licensed base (FHV, Commuter Van, or Para)",
B01623 ,JAMAICA EXPRESS CAR SERVICE INC.                            ,SUNSHINE CAR SERVICE                                        ,111-05 ROCKAWAY BOULEVARD,11420,718-322-1800,"TLC-licensed base (FHV, Commuter Van, or Para)",
B01625 ,GLOBE CAR SERVICE INC                                       ,                                                            ,112-06 101 AVENUE,11419,718-847-3500,"TLC-licensed base (FHV, Commuter Van, or Para)",
B01626 ,LA NUEVA QUISQUEYA C/S INC                                  ,                                                            ,87-38 148 STREET,11435,718-206-1616,"TLC-licensed base (FHV, Commuter Van, or Para)",
B01629 ,BBA MANAGEMENT INC.                                         ,UNITED CAR & LIMO SERVICE                                   ,424 BRIGHTON BEACH AVENUE,11235,718-934-4444,"TLC-licensed base (FHV, Commuter Van, or Para)",
B01631 ,B.O.B EXPRESS INC                                           ,                                                            ,32 MARKET STREET,10002,212-571-1133,"TLC-licensed base (FHV, Commuter Van, or Para)",
B01635 ,HAR-SINAY CAR & LIMO SVC INC                                ,                                                            ,428 AVENUE P,11223,718-627-1111,"TLC-licensed base (FHV, Commuter Van, or Para)",
B01636 ,HEIGHTS CAR & LIMO INC                                      ,                                                            ,78 HENRY STREET,11201,718-858-7771,"TLC-licensed base (FHV, Commuter Van, or Para)",
B01638 ,ALPHA CAR & LIMO.INC                                        ,                                                            ,1113 EAST   34 STREET,11210,718-859-2900,"TLC-licensed base (FHV, Commuter Van, or Para)",
B01639 ,HIGH CLASS LIMO CAR SVCE CORP                               ,                                                            ,604 WEST  158 STREET,10032,718-466-1334,"TLC-licensed base (FHV, Commuter Van, or Para)",
B01640 ,"CINVAL CAR AND LIMOUSINE SERVICE, INC.                      ",IMPERIAL CAR SERVICE                                        ,40-03 150 STREET,11354,718-939-6666,"TLC-licensed base (FHV, Commuter Van, or Para)",
B01641 ,DEPAUL CAR SERVICE                                          ,                                                            ,1109 EAST   34 STREET,11210,718-692-4130,"TLC-licensed base (FHV, Commuter Van, or Para)",
B01650 ,NY KINGS TRANSPORTATION INC                                 ,KINGS CAR SERVICE                                           ,4 BAY   32 STREET,11214,718-714-1919,"TLC-licensed base (FHV, Commuter Van, or Para)",
B01651 ,U.P.S. RADIO DISPATCH CORP.                                 ,                                                            ,1303 BRONX RIVER AVENUE,10472,718-328-5555,"TLC-licensed base (FHV, Commuter Van, or Para)",
B01653 ,ART'S PLACE INC.                                            ,ON TIME CAR SERVICE                                         ,2111A EAST   19 STREET,11229,718-934-4048,"TLC-licensed base (FHV, Commuter Van, or Para)",
B01663 ,CIBAO RADIO DISPATCH                                        ,                                                            ,112-44 ROOSEVELT AVENUE,11368,718-478-2300,"TLC-licensed base (FHV, Commuter Van, or Para)",
B01667 ,"NEW GOLDEN HORSE C/L SVC,INC.                               ",                                                            ,43-04 MAIN STREET 3FL,11355,718-762-3888,"TLC-licensed base (FHV, Commuter Van, or Para)",
B01672 ,NEW DAYNIGHT CAR SVCE                                       ,                                                            ,452 WEST  145 STREET,10031,212-694-4000,"TLC-licensed base (FHV, Commuter Van, or Para)",
B01674 ,NEW PUEBLA CAR & LIMOUSINE SERVICE INC.                     ,                                                            ,69-35 51 AVENUE,11377,718-458-6464,"TLC-licensed base (FHV, Commuter Van, or Para)",
B01675 ,"TOWNCAR TRANSPORTATION, INC.                                ",NEW TOPACIO CAR SERVICE                                     ,253 GRAHAM AVENUE,11206,718-963-4310,"TLC-licensed base (FHV, Commuter Van, or Para)",
B01678 ,G WAY TRANSPORT INC.                                        ,GETAWAY TRAVEL                                              ,6512 NEW UTRECHT AVENUE,11219,718-236-5000,"TLC-licensed base (FHV, Commuter Van, or Para)",
B01679 ,CENTURY CAR SVCE INC                                        ,                                                            ,78-45 SPRINGFIELD BOULEVARD,11364,718-740-6600,"TLC-licensed base (FHV, Commuter Van, or Para)",
B01685 ,TOV TOO TRANSP INC                                          ,                                                            ,1811 EAST    7 STREET,11223,718-375-8877,"TLC-licensed base (FHV, Commuter Van, or Para)",
B01694 ,OCEAN CAR SERVICE INC.                                      ,BEACH CAR SERVICE                                           ,91-13 ROCKAWAY BEACH BOULEVARD,11693,718-945-2222,"TLC-licensed base (FHV, Commuter Van, or Para)",
B01697 ,NEW MEXICANA CAR SERVICE INC                                ,                                                            ,1840 CONEY ISLAND AVENUE,11230,718-382-0100,"TLC-licensed base (FHV, Commuter Van, or Para)",
B01699 ,NEW MONTAGUE CAR AND LIMO INC                               ,                                                            ,149 ATLANTIC AVENUE,11201,718-625-4444,"TLC-licensed base (FHV, Commuter Van, or Para)",
B01700 ,"LINDEN CAR SERVICES, INC.                                   ",                                                            ,201-09 LINDEN BOULEVARD,11412,718-481-8393,"TLC-licensed base (FHV, Commuter Van, or Para)",
B01703 ,KEXPRESS CAR SERVICE                                        ,                                                            ,146-20B ROCKAWAY BOULEVARD,11436,718-322-5252,"TLC-licensed base (FHV, Commuter Van, or Para)",
B01704 ,AMERIWORLD I INC                                            ,                                                            ,1505 SHEEPHEAD BAY RD.,11235,718-648-8888,"TLC-licensed base (FHV, Commuter Van, or Para)",
B01706 ,FIAT EXPRESS CORP                                           ,                                                            ,275 KINGS HIGHWAY,11223,718-382-6161,"TLC-licensed base (FHV, Commuter Van, or Para)",
B01710 ,68 INC.                                                     ,MASADA III                                                  ,1319 EAST   17 STREET,11230,718-434-6666,"TLC-licensed base (FHV, Commuter Van, or Para)",
B01711 ,FLUSHING LIMO TRANSP CORP                                   ,                                                            ,36-09 164 STREET,11358,718-358-1111,"TLC-licensed base (FHV, Commuter Van, or Para)",
B01714 ,BED STAR DRIVERS ASSOC INC                                  ,                                                            ,528 EMPIRE BOULEVARD,11225,718-771-2299,"TLC-licensed base (FHV, Commuter Van, or Para)",
B01716 ,CALIFORNIA CAR SVCE INC                                     ,                                                            ,1005 CHURCH AVENUE,11218,718-282-4444,"TLC-licensed base (FHV, Commuter Van, or Para)",
B01717 ,HIGH CLASS BRONX LIMO C/S CORP                              ,                                                            ,2269 HAMPDEN PLACE,10468,718-933-1111,"TLC-licensed base (FHV, Commuter Van, or Para)",
B01721 ,W.K. CAR & LIMO SERVICE INC                                 ,                                                            ,17 ALLEN STREET 4A,10002,212-274-1166,"TLC-licensed base (FHV, Commuter Van, or Para)",
B01722 ,BENSONHURST TRANSPORTATION LLC                              ,A R EXPRESS CAR SERVICE                                     ,8609 15 AVENUE,11228,718-236-8881,"TLC-licensed base (FHV, Commuter Van, or Para)",
B01724 ,US EXPRESS CAR & LIMO SVCE INC                              ,                                                            ,99 CHURCH AVENUE,11218,718-236-7373,"TLC-licensed base (FHV, Commuter Van, or Para)",
B01726 ,SUPER CLASS RADIO DISP INC                                  ,                                                            ,1831 GRAND CONCOURSE,10453,718-367-2222,"TLC-licensed base (FHV, Commuter Van, or Para)",
B01730 ,LUCKY EXPRESS CORPORATION                                   ,GOOD LUCK CAR SVCE                                          ,47 LUDLOW STREET,10002,212-219-8886,"TLC-licensed base (FHV, Commuter Van, or Para)",
B01731 ,ROSEDALE BASE CAR SERVICE CORP.                             ,DANNY'S CAR SERVICE                                         ,139-15 FRANCIS LEWIS BOULEVARD,11422,718-528-3434,"TLC-licensed base (FHV, Commuter Van, or Para)",
B01733 ,SHMT INC.                                                   ,MILL BASIN CAR SVCE                                         ,4218 FILLMORE AVENUE 1ST FL,11234,718-444-7777,"TLC-licensed base (FHV, Commuter Van, or Para)",
B01734 ,AMERICAN DREAM CAR SERVICE INC.                             ,                                                            ,163 EAST   92 STREET FL,10128,212-426-1010,"TLC-licensed base (FHV, Commuter Van, or Para)",
B01737 ,WASHINGTON RAD DISP INC                                     ,                                                            ,2304 AMSTERDAM AVENUE,10033,212-740-4444,"TLC-licensed base (FHV, Commuter Van, or Para)",
B01738 ,NEW COMMANDO CAR SERVICE CORP.                              ,N.Y. SAETA                                                  ,102-54 43 AVENUE,11368,718-478-7474,"TLC-licensed base (FHV, Commuter Van, or Para)",
B01739 ,THE CENTRAL RADIO DISP INC                                  ,                                                            ,274 WYCKOFF AVENUE 1FL,11237,718-418-2222,"TLC-licensed base (FHV, Commuter Van, or Para)",
B01741 ,MONACO LIMO & CAR SERVICES INC.                             ,                                                            ,742 WASHINGTON AVENUE,11238,718-230-0202,"TLC-licensed base (FHV, Commuter Van, or Para)",
B01743 ,TWO WAY BLACK CARS & RAD GRP                                ,                                                            ,2642 BROADWAY 3 FL,10025,212-663-3333,"TLC-licensed base (FHV, Commuter Van, or Para)",
B01745 ,AZUAY CORPORATION                                           ,CARIBE CAR SERVICE                                          ,105-08 LIBERTY AVENUE,11417,718-738-4994,"TLC-licensed base (FHV, Commuter Van, or Para)",
B01751 ,CONCORDE EXP OF N.Y. INC                                    ,                                                            ,1611 EAST   19 STREET,11229,718-645-5555,"TLC-licensed base (FHV, Commuter Van, or Para)",
B01764 ,QUICK RIDE CORP.                                            ,                                                            ,88 HESTER STREET,10002,212-233-0005,"TLC-licensed base (FHV, Commuter Van, or Para)",
B01768 ,NEW SUPERIOR RADIO GRP CORP                                 ,                                                            ,911 COLUMBUS AVENUE,10025,212-663-6560,"TLC-licensed base (FHV, Commuter Van, or Para)",
B01777 ,PREMIUM RADIO DISP & MULTI SVC                              ,                                                            ,1787 AMSTERDAM AVENUE,10031,212-694-2222,"TLC-licensed base (FHV, Commuter Van, or Para)",
B01808 ,OLD TOWN CARS CORP                                          ,DELTA CARS                                                  ,160 MORNINGSTAR ROAD,10303,718-720-9198,"TLC-licensed base (FHV, Commuter Van, or Para)",
B01811 ,IVOIRE CAR SERVICE INC.                                     ,                                                            ,27-29 EAST  124 STREET,10035,212-289-1600,"TLC-licensed base (FHV, Commuter Van, or Para)",
B01815 ,INDO-PAK INC                                                ,MAIN STREET CAR SERVICE                                     ,149-17A UNION TURNPIKE,11367,718-380-3333,"TLC-licensed base (FHV, Commuter Van, or Para)",
B01821 ,EMPIRE TRANSPORTATION SERVICE INC.                          ,                                                            ,1417 GRAVESEND NECK ROAD,11229,718-376-5050,"TLC-licensed base (FHV, Commuter Van, or Para)",
B01833 ,T. J.'S CAR SERVICE INC                                     ,                                                            ,17 HARRISON AVENUE,10302,718-442-5800,"TLC-licensed base (FHV, Commuter Van, or Para)",
B01848 ,GRAND LIMO & CAR SERVICE INC.                               ,                                                            ,36-07 32 STREET,11106,718-433-4255,"TLC-licensed base (FHV, Commuter Van, or Para)",
B01855 ,LAURELTON CAR SERVICE INC                                   ,                                                            ,141-32 224 STREET,11413,718-712-8933,"TLC-licensed base (FHV, Commuter Van, or Para)",
B01857 ,NEW YORK RIDE INC.                                          ,                                                            ,701 EAST  214 STREET,10467,212-368-1220,"TLC-licensed base (FHV, Commuter Van, or Para)",
B01868 ,"CHELSEA EXPRESS CAR, INC.                                   ",DIAL 4 LIMO                                                 ,36-31 10TH STREET,11106,718-391-9130,"TLC-licensed base (FHV, Commuter Van, or Para)",
B01893 ,NEW CYPRESS CAR SERVICE CORP.                               ,                                                            ,1063-20 BEDFORD AVENUE,11216,718-398-7900,"TLC-licensed base (FHV, Commuter Van, or Para)",
B01918 ,SAMIA CAR SERVICE                                           ,                                                            ,7920 5 AVENUE,11209,718-238-8888,"TLC-licensed base (FHV, Commuter Van, or Para)",
B01924 ,"EASY FAST CAR SERVICE, INC.                                 ",                                                            ,1448 FLATBUSH AVENUE,11210,718-421-3399,"TLC-licensed base (FHV, Commuter Van, or Para)",
B01927 ,"NORTHLANDS TRIPS CAR SERVICE, INC.                          ",                                                            ,149 7 AVENUE,11215,718-797-7100,"TLC-licensed base (FHV, Commuter Van, or Para)",
B01930 ,NORTENA EXPRESS CAR SERVICE INC.                            ,                                                            ,565 CONEY ISLAND AVENUE,11218,718-856-9400,"TLC-licensed base (FHV, Commuter Van, or Para)",
B01934 ,ADAM'S CAR AND LIMO SERVICE                                 ,                                                            ,7117 5 AVENUE,11209,718-836-3600,"TLC-licensed base (FHV, Commuter Van, or Para)",
B01951 ,"C&D CAR SERVICE, INC.                                       ",                                                            ,9104 AVENUE L,11236,718-251-7700,"TLC-licensed base (FHV, Commuter Van, or Para)",
B01958 ,ST.ALBANS-HOLLIS CAR SERVICE                                ,                                                            ,200-10 HOLLIS AVENUE,11412,718-740-2196,"TLC-licensed base (FHV, Commuter Van, or Para)",
B01960 ,ISLAND-WIDE CAR & LIMO SVC INC                              ,                                                            ,12 BRADLEY AVENUE,10314,718-761-5100,"TLC-licensed base (FHV, Commuter Van, or Para)",
B01963 ,"PORTTAL CAR SERVICE,CORP.                                   ",                                                            ,622 CHESTER STREET,11212,718-342-4200,"TLC-licensed base (FHV, Commuter Van, or Para)",
B01972 ,B.A.L. CAR SERVICE INC                                      ,                                                            ,316 SARATOGA AVENUE,11233,347-996-8198,"TLC-licensed base (FHV, Commuter Van, or Para)",
B01973 ,RAJA CAR & LIMOUSINE SERVICE INC.                           ,                                                            ,43-10 MAIN STREET,11355,718-321-1444,"TLC-licensed base (FHV, Commuter Van, or Para)",
B01977 ,USA CAR SERVICE INC.                                        ,                                                            ,511 85 STREET,11209,718-836-4911,"TLC-licensed base (FHV, Commuter Van, or Para)",
B01978 ,KLS TRANSPORTATION INC.                                     ,                                                            ,35-44 11 STREET,11106,718-545-7900,"TLC-licensed base (FHV, Commuter Van, or Para)",
B01979 ,DREAMLAND CAR & LIMO.SVC                                    ,                                                            ,9732 SEAVIEW AVENUE,11236,718-444-5000,"TLC-licensed base (FHV, Commuter Van, or Para)",
B01982 ,STATE CAR & LIMO SVC                                        ,                                                            ,923 LIVONIA AVENUE,11207,718-342-6666,"TLC-licensed base (FHV, Commuter Van, or Para)",
B01984 ,NY 88 EXPRESS CORP.                                         ,                                                            ,6420 11 AVENUE,11219,718-706-0033,"TLC-licensed base (FHV, Commuter Van, or Para)",
B01987 ,ASCONA CAR SERVICE INC                                      ,                                                            ,1921 MCDONALD AVENUE,11223,718-449-1111,"TLC-licensed base (FHV, Commuter Van, or Para)",
B01991 ,N. Y. C. STAR LIMOUSINE & CAR SERV. CORP.                   ,                                                            ,2917 FULTON STREET,11207,718-277-6383,"TLC-licensed base (FHV, Commuter Van, or Para)",
B01992 ,"SELECTIVE CAR SERVICES,INC.                                 ",                                                            ,187-27 LINDEN BOULEVARD,11412,718-949-1985,"TLC-licensed base (FHV, Commuter Van, or Para)",
B01995 ,NYMEX UNO EXECUTIVE SEDAN'S INC                             ,NYMEX CAR SERVICE                                           ,43-09 39 STREET,11104,718-786-1000,"TLC-licensed base (FHV, Commuter Van, or Para)",
B01996 ,PUEBLA EXP.CORP.                                            ,                                                            ,802 44 STREET,11220,718-437-2323,"TLC-licensed base (FHV, Commuter Van, or Para)",
B02004 ,METROPOLITAN MULTIPLEX CAR SERVICE CORP.                    ,                                                            ,390 METROPOLITAN AVENUE,11211,718-388-1800,"TLC-licensed base (FHV, Commuter Van, or Para)",
B02006 ,AMERICA UNITED MULTIPLEX CAR SERVICE CORP.                  ,                                                            ,599 MANHATTAN AVENUE,11222,718-349-5900,"TLC-licensed base (FHV, Commuter Van, or Para)",
B02012 ,S.R.L. CAR SERVICE INC                                      ,                                                            ,219-23 MERRICK BOULEVARD,11413,718-276-7900,"TLC-licensed base (FHV, Commuter Van, or Para)",
B02015 ,ONNURI LIMOUSINE TOUR INC.                                  ,                                                            ,36-24A UNION STREET,11354,718-888-3333,"TLC-licensed base (FHV, Commuter Van, or Para)",
B02020 ,BLUE DIAMOND CAR SERVICE INC.                               ,                                                            ,1780 BAY RIDGE AVENUE,11204,718-234-0088,"TLC-licensed base (FHV, Commuter Van, or Para)",
B02021 ,EASYRIDE CAR SERVICE INC.                                   ,                                                            ,2914 AVENUE P,11229,718-444-5557,"TLC-licensed base (FHV, Commuter Van, or Para)",
B02026 ,A RIDE FOR ALL LLC                                          ,                                                            ,36-31 10TH STREET,11106,718-706-7433,"TLC-licensed base (FHV, Commuter Van, or Para)",
B02028 ,FOREST AVENUE CAR SERVICE INC                               ,                                                            ,84 GRANITE AVENUE,10303,718-981-4400,"TLC-licensed base (FHV, Commuter Van, or Para)",
B02030 ,BLUE CAR & LIMO INC                                         ,                                                            ,137 COURT STREET,11201,718-243-2094,"TLC-licensed base (FHV, Commuter Van, or Para)",
B02031 ,JUBILEE RADIO DISPATCHER CORP.                              ,                                                            ,122-05 15 AVENUE,11356,718-478-1111,"TLC-licensed base (FHV, Commuter Van, or Para)",
B02032 ,GLORY CAR & LIMO SVC                                        ,                                                            ,1405 WEBSTER AVENUE,10456,718-676-4777,"TLC-licensed base (FHV, Commuter Van, or Para)",
B02034 ,MOE LIMO & CAR SERVICE INC.                                 ,                                                            ,44-12 PURVES STREET,11101,718-786-7474,"TLC-licensed base (FHV, Commuter Van, or Para)",
B02035 ,LUXOR LIMO. INC.                                            ,                                                            ,502 AVENUE U,11223,718-998-4111,"TLC-licensed base (FHV, Commuter Van, or Para)",
B02037 ,KINGSDALE DISPATCH INC                                      ,                                                            ,1 RIVERDALE AVENUE,10463,718-796-2222,"TLC-licensed base (FHV, Commuter Van, or Para)",
B02041 ,LEX CAR SERVICE INC.                                        ,                                                            ,134-15 ROCKAWAY BOULEVARD,11420,718-322-5959,"TLC-licensed base (FHV, Commuter Van, or Para)",
B02043 ,M & H CAR SERVICE CORPORATION                               ,                                                            ,39-01 64 STREET,11377,718-507-0505,"TLC-licensed base (FHV, Commuter Van, or Para)",
B02045 ,CATCH AH RIDE LIMO INC                                      ,                                                            ,735 NOSTRAND AVENUE,11216,718-493-2500,"TLC-licensed base (FHV, Commuter Van, or Para)",
B02047 ,LA NEW EXPRESS INC.                                         ,                                                            ,6004 20 AVENUE,11204,718-837-8200,"TLC-licensed base (FHV, Commuter Van, or Para)",
B02048 ,BIG KING CAR & LIMO. INC.                                   ,                                                            ,2504 HARWAY AVENUE,11214,718-714-1900,"TLC-licensed base (FHV, Commuter Van, or Para)",
B02049 ,PROSPECT CAR & LIMO INC                                     ,                                                            ,88A 4TH AVENUE,11215,718-599-2222,"TLC-licensed base (FHV, Commuter Van, or Para)",
B02050 ,"MAZIN  CAR & LIMO SVC., LLC                                 ",                                                            ,111-19 LIBERTY AVENUE,11212,917-416-0499,"TLC-licensed base (FHV, Commuter Van, or Para)",
B02055 ,"MONTAGUE MANAGEMENT SERVICES, INC.                          ",PROMINENT CAR & LIMO                                        ,78 HENRY STREET,11201,718-855-7900,"TLC-licensed base (FHV, Commuter Van, or Para)",
B02058 ,MEX SERVICE INC                                             ,MEX EXPRESS CAR SERVICE                                     ,1623 CORTELYOU ROAD,11226,718-941-5200,"TLC-licensed base (FHV, Commuter Van, or Para)",
B02066 ,"PLAZA EXECUTIVE, INC                                        ",SONG CAR & LIMOUSINE SERVICE                                ,17-12 GROVE STREET,11385,718-744-8989,"TLC-licensed base (FHV, Commuter Van, or Para)",
B02071 ,ADVANTEDGE CAR & LIMO INC                                   ,                                                            ,98 SMITH STREET,11201,718-797-0777,"TLC-licensed base (FHV, Commuter Van, or Para)",
B02077 ,LATINO MIX CAR SERVICE CORP                                 ,                                                            ,505 61 STREET,11220,718-439-0024,"TLC-licensed base (FHV, Commuter Van, or Para)",
B02078 ,DUKE CAR & LIMO SVC.                                        ,                                                            ,167-05 HILLSIDE AVENUE,11432,718-323-0323,"TLC-licensed base (FHV, Commuter Van, or Para)",
B02080 ,#1 MEXICALY CAR SERVICES CORP                               ,                                                            ,184 KNICKERBOCKER AVENUE,11237,718-386-7777,"TLC-licensed base (FHV, Commuter Van, or Para)",
B02089 ,COLONIAL II CAR & LIMO SVC.                                 ,                                                            ,7619 3 AVENUE,11209,718-765-1900,"TLC-licensed base (FHV, Commuter Van, or Para)",
B02093 ,V.J. CAR & LIMO SVC INC.                                    ,                                                            ,104-08 123 STREET,11419,718-641-7777,"TLC-licensed base (FHV, Commuter Van, or Para)",
B02102 ,"GOLDEN DRAGON EXPRESS, INC                                  ",                                                            ,68 EAST BROADWAY #303,10002,212-226-1333,"TLC-licensed base (FHV, Commuter Van, or Para)",
B02103 ,A & S LIMOUSINE SERVICE CORP                                ,                                                            ,1096 DEKALB AVENUE,11221,718-455-1900,"TLC-licensed base (FHV, Commuter Van, or Para)",
B02107 ,APOLLO RADIO DISPATCH INC.                                  ,                                                            ,801 FREEMAN STREET,10459,718-589-7330,"TLC-licensed base (FHV, Commuter Van, or Para)",
B02109 ,FARMERS EXPRESS CAR SERVICE INC                             ,                                                            ,138-10 FARMERS BOULEVARD,11434,718-978-3800,"TLC-licensed base (FHV, Commuter Van, or Para)",
B02111 ,HUANG HOU CAR SERVICES INC.                                 ,HUANG HOU CAR SERVICES INC.                                 ,35-14 FARRINGTON STREET 2 FL.,11354,718-939-1828,"TLC-licensed base (FHV, Commuter Van, or Para)",
B02129 ,DISCOVERY TRANSPORTATION CORP.                              ,                                                            ,147 POST AVENUE,10034,212-942-1111,"TLC-licensed base (FHV, Commuter Van, or Para)",
B02135 ,TOMBY HOLDING CORP.                                         ,SEN-ON CAR SERVICE                                          ,101-20 LIBERTY AVENUE,11417,718-641-0329,"TLC-licensed base (FHV, Commuter Van, or Para)",
B02138 ,"GUADALUPANA CAR LIMO, INC                                   ",                                                            ,65-06 20 AVENUE,11204,718-621-0404,"TLC-licensed base (FHV, Commuter Van, or Para)",
B02162 ,"A B C INTERNATIONAL SERVICES, INC.                          ",                                                            ,141-36 ROCKAWAY BOULEVARD,11436,718-974-3597,"TLC-licensed base (FHV, Commuter Van, or Para)",
B02163 ,MEGA MEX INC.                                               ,                                                            ,1401 FOSTER AVENUE,11230,718-859-1111,"TLC-licensed base (FHV, Commuter Van, or Para)",
B02168 ,EASY LIMO LEASING INC.                                      ,                                                            ,76-46 164 STREET,11366,718-380-5466,"TLC-licensed base (FHV, Commuter Van, or Para)",
B02172 ,"LAURA CAR AND LIMO SERVICES, INC                            ",                                                            ,111-13 LEFFERTS BOULEVARD,11420,718-322-3723,"TLC-licensed base (FHV, Commuter Van, or Para)",
B02178 ,NEW WAY CAR SERVICE INC.                                    ,                                                            ,241-02 SOUTH CONDUIT AVENUE,11422,718-749-2902,"TLC-licensed base (FHV, Commuter Van, or Para)",
B02182 ,SPIRIT CAR & LIMO SERVICE INC.                              ,                                                            ,1433 BEDFORD AVENUE,11216,718-797-0777,"TLC-licensed base (FHV, Commuter Van, or Para)",
B02183 ,BANGLA CAR & LIMO. SERVICE INC.                             ,                                                            ,38-56 13 STREET,11101,718-207-8085,"TLC-licensed base (FHV, Commuter Van, or Para)",
B02185 ,ENCORE CAR & LIMO.SERVICE INC.                              ,                                                            ,1038 ROGERS AVENUE,11226,718-675-3333,"TLC-licensed base (FHV, Commuter Van, or Para)",
B02188 ,NARROWS LIMO & CAR INC.                                     ,                                                            ,8515 3 AVENUE,11209,718-909-5379,"TLC-licensed base (FHV, Commuter Van, or Para)",
B02189 ,VAN WYCK EXPRESS CAR SERVICE INC.                           ,                                                            ,135-18 LIBERTY AVENUE,11419,718-909-5379,"TLC-licensed base (FHV, Commuter Van, or Para)",
B02193 ,ARC CAR & LIMO SVC                                          ,                                                            ,3015 WEST   23 STREET,11224,718-946-2688,"TLC-licensed base (FHV, Commuter Van, or Para)",
B02194 ,NUMBER 1 TRANSPORTATION INC                                 ,                                                            ,552 BEACH   25 STREET,11691,718-471-1111,"TLC-licensed base (FHV, Commuter Van, or Para)",
B02195 ,OGDEN CAR SERVICES INC                                      ,                                                            ,1165 OGDEN AVENUE,10452,718-574-9105,"TLC-licensed base (FHV, Commuter Van, or Para)",
B02197 ,JAMES A LEASING INC.                                        ,                                                            ,51-03 VAN DAM STREET,11101,718-937-9147,"TLC-licensed base (FHV, Commuter Van, or Para)",
B02206 ,LA POBLANITA CAR SERVICE CORP.                              ,                                                            ,582 BUSHWICK AVENUE,11206,718-574-8888,"TLC-licensed base (FHV, Commuter Van, or Para)",
B02210 ,"MURRAY CAR SERVICE, INC.                                    ",                                                            ,4406A CHURCH AVENUE,11203,718-675-7000,"TLC-licensed base (FHV, Commuter Van, or Para)",
B02211 ,P & L CAR AND LIMO SERVICE INC.                             ,                                                            ,133-08 ROCKAWAY BOULEVARD,11420,718-322-3723,"TLC-licensed base (FHV, Commuter Van, or Para)",
B02212 ,CITY LIMOUSINE TRANSP. INC.                                 ,                                                            ,35-58 12 STREET,11106,718-932-5621,"TLC-licensed base (FHV, Commuter Van, or Para)",
B02213 ,"EXPRESS 11 CAR SERVICE, INC.                                ",                                                            ,475 5 AVENUE,11215,718-499-3800,"TLC-licensed base (FHV, Commuter Van, or Para)",
B02219 ,ALL QUEENS CAR & LIMOUSINE INC.                             ,CAR ON TIME                                                 ,46-17 VERNON BOULEVARD,11101,718-361-2060,"TLC-licensed base (FHV, Commuter Van, or Para)",
B02227 ,REZ'S CAR SERVICE INC.                                      ,                                                            ,149-10 ARCHER AVENUE,11435,718-739-5988,"TLC-licensed base (FHV, Commuter Van, or Para)",
B02228 ,SPECIAL RADIO DISP.CORP.                                    ,                                                            ,969 COLUMBUS AVENUE,10025,212-666-3939,"TLC-licensed base (FHV, Commuter Van, or Para)",
B02229 ,NEW FAT INC.                                                ,                                                            ,1804 RANDALL AVENUE,10473,718-328-3333,"TLC-licensed base (FHV, Commuter Van, or Para)",
B02245 ,OCEANA CAR AND LIMO                                         ,                                                            ,2395 CONEY ISLAND AVENUE,11223,718-645-8888,"TLC-licensed base (FHV, Commuter Van, or Para)",
B02249 ,"LA RAZA CAR SERVICE, INC.                                   ",                                                            ,80-01 31ST AVENUE,11370,718-397-1111,"TLC-licensed base (FHV, Commuter Van, or Para)",
B02258 ,JOE CAR SERVICE                                             ,                                                            ,514 TARGEE STREET,10304,718-556-5050,"TLC-licensed base (FHV, Commuter Van, or Para)",
B02260 ,EXPRESS WAY METRO CARS INC.                                 ,                                                            ,762 64 STREET,11220,718-836-0970,"TLC-licensed base (FHV, Commuter Van, or Para)",
B02265 ,"COUNTY CAR SERVICE, INC.                                    ",                                                            ,246 PARKINSON AVENUE,10305,718-727-6700,"TLC-licensed base (FHV, Commuter Van, or Para)",
B02266 ,YADAH TRANSPORTATION INC.                                   ,                                                            ,1074 BEACH   22 STREET,11691,718-327-8948,"TLC-licensed base (FHV, Commuter Van, or Para)",
B02268 ,"39 LINE TRIP C.S., INC.                                     ",                                                            ,3921 5 AVENUE,11232,718-435-2841,"TLC-licensed base (FHV, Commuter Van, or Para)",
B02269 ,DDA LUXURY LIMO AND CAR SERVICE CORP.                       ,                                                            ,221 MADISON STREET,10002,212-285-2020,"TLC-licensed base (FHV, Commuter Van, or Para)",
B02279 ,MATAMOROS CAR SERVICE INC.                                  ,                                                            ,1017 POST AVENUE,10302,718-390-0035,"TLC-licensed base (FHV, Commuter Van, or Para)",
B02282 ,MCGUINESS CAR SERVICE INC.                                  ,                                                            ,158 NASSAU AVENUE,11222,718-383-6556,"TLC-licensed base (FHV, Commuter Van, or Para)",
B02283 ,BRONX LUXURY SERVICES INC.                                  ,                                                            ,1749 EAST  172 STREET,10472,718-239-9099,"TLC-licensed base (FHV, Commuter Van, or Para)",
B02284 ,"DOLLAR EXPRESS CAR & LIMO, INC.                             ",                                                            ,139-35 JAMAICA AVENUE,11435,718-490-8550,"TLC-licensed base (FHV, Commuter Van, or Para)",
B02288 ,SAFARI TRANSPORTATION INC.                                  ,                                                            ,1267A ATLANTIC AVENUE,11216,718-826-6030,"TLC-licensed base (FHV, Commuter Van, or Para)",
B02293 ,XPRESS TRANSPORT & MULTI SERVICE INC.                       ,                                                            ,958 ST NICHOLAS AVENUE,10032,212-281-1111,"TLC-licensed base (FHV, Commuter Van, or Para)",
B02299 ,GAON CAR & LIMO SERVICE INC.                                ,                                                            ,5802 13 AVENUE,11219,718-972-6666,"TLC-licensed base (FHV, Commuter Van, or Para)",
B02304 ,ASTORIA TRANSPORTATION CORP.                                ,                                                            ,2102 23 STREET,11105,718-626-8686,"TLC-licensed base (FHV, Commuter Van, or Para)",
B02308 ,"RED HOOK CAR & LIMO SERVICE, INC.                           ",                                                            ,100 HUNTINGTON STREET,11231,718-643-1111,"TLC-licensed base (FHV, Commuter Van, or Para)",
B02311 ,FAST CITY CAR & LIMO SVC INC.                               ,                                                            ,3616 CHURCH AVENUE,11203,718-282-0973,"TLC-licensed base (FHV, Commuter Van, or Para)",
